{"type": "FeatureCollection", "features": [ {"type": "Feature", "properties": {"norad_id": 66659, "name": "JACK K", "group": "last-30-days", "lat": -19.08665287044083, "lon": 90.76790103083356, "alt_km": 593.3598776272011, "timestamp": "2025-12-12T05:47:27.526815+00:00", "meta": {"OBJECT_NAME": "JACK K", "OBJECT_ID": "2025-274K", "EPOCH": "2025-12-11T19:14:53.218176", "MEAN_MOTION": 14.92799568, "ECCENTRICITY": 0.00120933, "INCLINATION": 97.7381, "RA_OF_ASC_NODE": 273.0328, "ARG_OF_PERICENTER": 283.9238, "MEAN_ANOMALY": 76.0636, "EPHEMERIS_TYPE": 0, "CLASSIFICATION_TYPE": "U", "NORAD_CAT_ID": 66659, "ELEMENT_SET_NO": 999, "REV_AT_EPOCH": 226, "BSTAR": 0.00046013436, "MEAN_MOTION_DOT": 4.709e-05, "MEAN_MOTION_DDOT": 0}, "tle": {"line1": "1 66659U 25274K   25345.80200484  .00004709  00000+0  46013-3 0  9993", "line2": "2 66659  97.7381 273.0328 0012093 283.9238  76.0636 14.92799568  2262"}}, "geometry": {"type": "Point", "coordinates": [90.76790103083356, -19.08665287044083]}}, {"type": "Feature", "properties": {"norad_id": 66660, "name": "K-HERO", "group": "last-30-days", "lat": -27.375471920442354, "lon": 89.43111974088296, "alt_km": 592.3079024144226, "timestamp": "2025-12-12T05:47:27.526825+00:00", "meta": {"OBJECT_NAME": "K-HERO", "OBJECT_ID": "2025-274L", "EPOCH": "2025-12-11T15:59:40.440192", "MEAN_MOTION": 14.92949324, "ECCENTRICITY": 0.00127402, "INCLINATION": 97.7385, "RA_OF_ASC_NODE": 272.9035, "ARG_OF_PERICENTER": 284.9144, "MEAN_ANOMALY": 75.0665, "EPHEMERIS_TYPE": 0, "CLASSIFICATION_TYPE": "U", "NORAD_CAT_ID": 66660, "ELEMENT_SET_NO": 999, "REV_AT_EPOCH": 224, "BSTAR": 0.00044641678, "MEAN_MOTION_DOT": 4.585e-05, "MEAN_MOTION_DDOT": 0}, "tle": {"line1": "1 66660U 25274L   25345.66644028  .00004585  00000+0  44642-3 0  9993", "line2": "2 66660  97.7385 272.9035 0012740 284.9144  75.0665 14.92949324  2243"}}, "geometry": {"type": "Point", "coordinates": [89.43111974088296, -27.375471920442354]}}, {"type": "Feature", "properties": {"norad_id": 66661, "name": "SNUGLITE-III", "group": "last-30-days", "lat": -35.60696253614358, "lon": 87.8837961898623, "alt_km": 591.1444490059193, "timestamp": "2025-12-12T05:47:27.526835+00:00", "meta": {"OBJECT_NAME": "SNUGLITE-III", "OBJECT_ID": "2025-274M", "EPOCH": "2025-12-11T15:57:30.678624", "MEAN_MOTION": 14.93088106, "ECCENTRICITY": 0.00134413, "INCLINATION": 97.7383, "RA_OF_ASC_NODE": 272.905, "ARG_OF_PERICENTER": 286.0161, "MEAN_ANOMALY": 73.9578, "EPHEMERIS_TYPE": 0, "CLASSIFICATION_TYPE": "U", "NORAD_CAT_ID": 66661, "ELEMENT_SET_NO": 999, "REV_AT_EPOCH": 224, "BSTAR": 0.00038412254, "MEAN_MOTION_DOT": 3.952e-05, "MEAN_MOTION_DDOT": 0}, "tle": {"line1": "1 66661U 25274M   25345.66493841  .00003952  00000+0  38412-3 0  9994", "line2": "2 66661  97.7383 272.9050 0013441 286.0161  73.9578 14.93088106  2243"}}, "geometry": {"type": "Point", "coordinates": [87.8837961898623, -35.60696253614358]}}, {"type": "Feature", "properties": {"norad_id": 66662, "name": "2025-274N", "group": "last-30-days", "lat": -38.827274315272625, "lon": 87.19042523601162, "alt_km": 590.471047791345, "timestamp": "2025-12-12T05:47:27.526845+00:00", "meta": {"OBJECT_NAME": "2025-274N", "OBJECT_ID": "2025-274N", "EPOCH": "2025-12-11T15:56:39.675840", "MEAN_MOTION": 14.93139159, "ECCENTRICITY": 0.00138877, "INCLINATION": 97.7384, "RA_OF_ASC_NODE": 272.9058, "ARG_OF_PERICENTER": 285.6575, "MEAN_ANOMALY": 74.3112, "EPHEMERIS_TYPE": 0, "CLASSIFICATION_TYPE": "U", "NORAD_CAT_ID": 66662, "ELEMENT_SET_NO": 999, "REV_AT_EPOCH": 224, "BSTAR": 0.00042305172, "MEAN_MOTION_DOT": 4.364e-05, "MEAN_MOTION_DDOT": 0}, "tle": {"line1": "1 66662U 25274N   25345.66434810  .00004364  00000+0  42305-3 0  9990", "line2": "2 66662  97.7384 272.9058 0013887 285.6575  74.3112 14.93139159  2245"}}, "geometry": {"type": "Point", "coordinates": [87.19042523601162, -38.827274315272625]}}, {"type": "Feature", "properties": {"norad_id": 66663, "name": "KSLV-II R/B", "group": "last-30-days", "lat": 80.87321218385314, "lon": 151.44722484685747, "alt_km": 592.4377160650465, "timestamp": "2025-12-12T05:47:27.526855+00:00", "meta": {"OBJECT_NAME": "KSLV-II R/B", "OBJECT_ID": "2025-274P", "EPOCH": "2025-12-11T19:44:45.559392", "MEAN_MOTION": 14.97285082, "ECCENTRICITY": 0.00515737, "INCLINATION": 97.7413, "RA_OF_ASC_NODE": 273.1735, "ARG_OF_PERICENTER": 322.7293, "MEAN_ANOMALY": 37.0354, "EPHEMERIS_TYPE": 0, "CLASSIFICATION_TYPE": "U", "NORAD_CAT_ID": 66663, "ELEMENT_SET_NO": 999, "REV_AT_EPOCH": 227, "BSTAR": 0.00078722263, "MEAN_MOTION_DOT": 9.321e-05, "MEAN_MOTION_DDOT": 0}, "tle": {"line1": "1 66663U 25274P   25345.82274953  .00009321  00000+0  78722-3 0  9999", "line2": "2 66663  97.7413 273.1735 0051573 322.7293  37.0354 14.97285082  2276"}}, "geometry": {"type": "Point", "coordinates": [151.44722484685747, 80.87321218385314]}}, {"type": "Feature", "properties": {"norad_id": 66664, "name": "SOYUZ-MS 28", "group": "last-30-days", "lat": 38.998150345682454, "lon": -74.95971862445823, "alt_km": 413.68353449651113, "timestamp": "2025-12-12T05:47:27.526868+00:00", "meta": {"OBJECT_NAME": "SOYUZ-MS 28", "OBJECT_ID": "2025-275A", "EPOCH": "2025-12-11T21:30:28.324224", "MEAN_MOTION": 15.49521399, "ECCENTRICITY": 0.00032978, "INCLINATION": 51.6307, "RA_OF_ASC_NODE": 146.6565, "ARG_OF_PERICENTER": 237.1442, "MEAN_ANOMALY": 122.9229, "EPHEMERIS_TYPE": 0, "CLASSIFICATION_TYPE": "U", "NORAD_CAT_ID": 66664, "ELEMENT_SET_NO": 999, "REV_AT_EPOCH": 128, "BSTAR": 0.00026380738, "MEAN_MOTION_DOT": 0.00014378, "MEAN_MOTION_DDOT": 0}, "tle": {"line1": "1 66664U 25275A   25345.89616116  .00014378  00000+0  26381-3 0  9991", "line2": "2 66664  51.6307 146.6565 0003297 237.1442 122.9229 15.49521399  1285"}}, "geometry": {"type": "Point", "coordinates": [-74.95971862445823, 38.998150345682454]}}, {"type": "Feature", "properties": {"norad_id": 66791, "name": "STARLINK-35867", "group": "last-30-days", "lat": 32.26882631094755, "lon": -62.12122964330926, "alt_km": 303.4306964642974, "timestamp": "2025-12-12T05:47:27.526878+00:00", "meta": {"OBJECT_NAME": "STARLINK-35867", "OBJECT_ID": "2025-278A", "EPOCH": "2025-12-11T20:00:01.999872", "MEAN_MOTION": 15.89180413, "ECCENTRICITY": 0.0001797, "INCLINATION": 42.9976, "RA_OF_ASC_NODE": 257.7433, "ARG_OF_PERICENTER": 256.3036, "MEAN_ANOMALY": 339.3212, "EPHEMERIS_TYPE": 0, "CLASSIFICATION_TYPE": "U", "NORAD_CAT_ID": 66791, "ELEMENT_SET_NO": 999, "REV_AT_EPOCH": 281, "BSTAR": -0.004184814, "MEAN_MOTION_DOT": -0.01103553, "MEAN_MOTION_DDOT": 0}, "tle": {"line1": "1 66791U 25278A   25345.83335648 -.01103553  00000+0 -41848-2 0  9998", "line2": "2 66791  42.9976 257.7433 0001797 256.3036 339.3212 15.89180413  2812"}}, "geometry": {"type": "Point", "coordinates": [-62.12122964330926, 32.26882631094755]}}, {"type": "Feature", "properties": {"norad_id": 66792, "name": "STARLINK-35990", "group": "last-30-days", "lat": 33.068614105016316, "lon": -60.455041660160816, "alt_km": 303.2641750463454, "timestamp": "2025-12-12T05:47:27.526890+00:00", "meta": {"OBJECT_NAME": "STARLINK-35990", "OBJECT_ID": "2025-278B", "EPOCH": "2025-12-11T20:00:01.999872", "MEAN_MOTION": 15.8921474, "ECCENTRICITY": 0.00018636, "INCLINATION": 42.9974, "RA_OF_ASC_NODE": 257.7393, "ARG_OF_PERICENTER": 257.866, "MEAN_ANOMALY": 339.3286, "EPHEMERIS_TYPE": 0, "CLASSIFICATION_TYPE": "U", "NORAD_CAT_ID": 66792, "ELEMENT_SET_NO": 999, "REV_AT_EPOCH": 281, "BSTAR": -0.0042070079, "MEAN_MOTION_DOT": -0.01110478, "MEAN_MOTION_DDOT": 0}, "tle": {"line1": "1 66792U 25278B   25345.83335648 -.01110478  00000+0 -42070-2 0  9991", "line2": "2 66792  42.9974 257.7393 0001863 257.8660 339.3286 15.89214740  2811"}}, "geometry": {"type": "Point", "coordinates": [-60.455041660160816, 33.068614105016316]}}, {"type": "Feature", "properties": {"norad_id": 66793, "name": "STARLINK-36051", "group": "last-30-days", "lat": 35.46500666622916, "lon": -54.93270810597621, "alt_km": 302.8066292618696, "timestamp": "2025-12-12T05:47:27.526904+00:00", "meta": {"OBJECT_NAME": "STARLINK-36051", "OBJECT_ID": "2025-278C", "EPOCH": "2025-12-11T20:00:01.999872", "MEAN_MOTION": 15.89288847, "ECCENTRICITY": 0.00017964, "INCLINATION": 42.9977, "RA_OF_ASC_NODE": 257.7264, "ARG_OF_PERICENTER": 259.125, "MEAN_ANOMALY": 343.154, "EPHEMERIS_TYPE": 0, "CLASSIFICATION_TYPE": "U", "NORAD_CAT_ID": 66793, "ELEMENT_SET_NO": 999, "REV_AT_EPOCH": 271, "BSTAR": -0.0043933196, "MEAN_MOTION_DOT": -0.01157407, "MEAN_MOTION_DDOT": 0}, "tle": {"line1": "1 66793U 25278C   25345.83335648 -.01157407  00000+0 -43933-2 0  9994", "line2": "2 66793  42.9977 257.7264 0001796 259.1250 343.1540 15.89288847  2711"}}, "geometry": {"type": "Point", "coordinates": [-54.93270810597621, 35.46500666622916]}}, {"type": "Feature", "properties": {"norad_id": 66794, "name": "STARLINK-36062", "group": "last-30-days", "lat": 34.465541658846774, "lon": -57.34516019951398, "alt_km": 303.0072663989695, "timestamp": "2025-12-12T05:47:27.526914+00:00", "meta": {"OBJECT_NAME": "STARLINK-36062", "OBJECT_ID": "2025-278D", "EPOCH": "2025-12-11T20:00:01.999872", "MEAN_MOTION": 15.89252888, "ECCENTRICITY": 0.00018077, "INCLINATION": 42.9976, "RA_OF_ASC_NODE": 257.732, "ARG_OF_PERICENTER": 258.3683, "MEAN_ANOMALY": 341.7328, "EPHEMERIS_TYPE": 0, "CLASSIFICATION_TYPE": "U", "NORAD_CAT_ID": 66794, "ELEMENT_SET_NO": 999, "REV_AT_EPOCH": 281, "BSTAR": -0.0043221947, "MEAN_MOTION_DOT": -0.01139118, "MEAN_MOTION_DDOT": 0}, "tle": {"line1": "1 66794U 25278D   25345.83335648 -.01139118  00000+0 -43222-2 0  9995", "line2": "2 66794  42.9976 257.7320 0001807 258.3683 341.7328 15.89252888  2813"}}, "geometry": {"type": "Point", "coordinates": [-57.34516019951398, 34.465541658846774]}}]}